NORAD_CAT_ID,OBJECT_NAME,OBJECT_TYPE,EPOCH,MEAN_MOTION,ECCENTRICITY,INCLINATION,RA_OF_ASC_NODE,ARG_OF_PERICENTER,MEAN_ANOMALY,BSTAR,MEAN_MOTION_DOT,MEAN_MOTION_DDOT,TLE_LINE0,TLE_LINE1,TLE_LINE2,SEMIMAJOR_AXIS,PERIOD,APOGEE,PERIGEE,DECAYED
51805.0,STARLINK-3605,PAYLOAD,2023-04-07 10:12:21,15.08850365,0.0002004,53.2171,80.2632,88.825,271.2972,0.0001879,2.704e-05,0.0,0 STARLINK-3605,1 51805U 22017AP  23097.42524841  .00002704  00000-0  18790-3 0  9993,2 51805  53.2171  80.2632 0002004  88.8250 271.2972 15.08850365 63121,6917.849,95.437,541.1,538.327,0.0
51805.0,STARLINK-3605,PAYLOAD,2023-04-08 02:06:13,15.08838562,0.0002005,53.2183,77.2881,93.9177,266.2044,5.3293e-05,5.6e-06,0.0,0 STARLINK-3605,1 51805U 22017AP  23098.08765272  .00000560  00000-0  53293-4 0  9997,2 51805  53.2183  77.2881 0002005  93.9177 266.2044 15.08838562 63222,6917.885,95.438,541.137,538.363,0.0
51805.0,STARLINK-3605,PAYLOAD,2023-04-08 10:03:08,15.08848429,0.0001963,53.2174,75.8034,94.3992,265.7224,0.00015746,2.219e-05,0.0,0 STARLINK-3605,1 51805U 22017AP  23098.41884798  .00002219  00000-0  15746-3 0  9992,2 51805  53.2174  75.8034 0001963  94.3992 265.7224 15.08848429 63270,6917.855,95.437,541.078,538.362,0.0
51805.0,STARLINK-3605,PAYLOAD,2023-04-09 00:21:37,15.08836461,0.0001859,53.2181,73.1271,95.0884,265.0321,3.0544e-05,1.98e-06,0.0,0 STARLINK-3605,1 51805U 22017AP  23099.01501414  .00000198  00000-0  30544-4 0  9998,2 51805  53.2181  73.1271 0001859  95.0884 265.0321 15.08836461 63368,6917.891,95.438,541.042,538.47,0.0
51805.0,STARLINK-3605,PAYLOAD,2023-04-09 08:18:32,15.08850043,0.0001955,53.2182,71.6393,98.2886,261.8328,0.00024719,3.649e-05,0.0,0 STARLINK-3605,1 51805U 22017AP  23099.34620767  .00003649  00000-0  24719-3 0  9997,2 51805  53.2182  71.6393 0001955  98.2886 261.8328 15.08850043 63410,6917.85,95.437,541.067,538.362,0.0
51805.0,STARLINK-3605,PAYLOAD,2023-04-10 00:12:22,15.08863629,0.0001874,53.2187,68.6662,101.1746,258.9457,0.00042279,6.451e-05,0.0,0 STARLINK-3605,1 51805U 22017AP  23100.00859742  .00006451  00000-0  42279-3 0  9995,2 51805  53.2187  68.6662 0001874 101.1746 258.9457 15.08863629 63514,6917.808,95.436,540.97,538.377,0.0
51805.0,STARLINK-3605,PAYLOAD,2023-04-10 06:33:54,15.0887178,0.0001899,53.2187,67.4774,101.0115,259.1091,0.00054226,8.36e-05,0.0,0 STARLINK-3605,1 51805U 22017AP  23100.27355121  .00008360  00000-0  54226-3 0  9992,2 51805  53.2187  67.4774 0001899 101.0115 259.1091 15.08871780 63559,6917.783,95.436,540.962,538.335,0.0
51805.0,STARLINK-3605,PAYLOAD,2023-04-10 22:27:47,15.08837041,0.0002467,53.2191,64.5041,94.5755,265.5519,-0.00021129,-3.649e-05,0.0,0 STARLINK-3605,1 51805U 22017AP  23100.93596450 -.00003649  00000-0 -21129-3 0  9990,2 51805  53.2191  64.5041 0002467  94.5755 265.5519 15.08837041 63656,6917.889,95.438,541.461,538.048,0.0
51805.0,STARLINK-3605,PAYLOAD,2023-04-11 01:38:33,15.08833189,0.0001767,53.2187,63.9106,103.5201,256.5988,-0.00030587,-5.152e-05,0.0,0 STARLINK-3605,1 51805U 22017AP  23101.06844444 -.00005152  00000-0 -30587-3 0  9993,2 51805  53.2187  63.9106 0001767 103.5201 256.5988 15.08833189 63676,6917.901,95.438,540.989,538.544,0.0
51805.0,STARLINK-3605,PAYLOAD,2023-04-11 08:00:06,15.08833321,0.0001845,53.2189,62.7193,104.8203,255.2993,-0.0001677,-2.956e-05,0.0,0 STARLINK-3605,1 51805U 22017AP  23101.33340635 -.00002956  00000-0 -16770-3 0  9993,2 51805  53.2189  62.7193 0001845 104.8203 255.2993 15.08833321 63719,6917.901,95.438,541.042,538.489,0.0
51805.0,STARLINK-3605,PAYLOAD,2023-04-12 14:12:27,15.08827765,0.0001916,53.218,57.0707,95.8568,264.2643,0.00048106,7.374e-05,0.0,0 STARLINK-3605,1 51805U 22017AP  23102.59197967  .00007374  00000-0  48106-3 0  9995,2 51805  53.2180  57.0707 0001916  95.8568 264.2643 15.08827765 63908,6917.918,95.438,541.108,538.457,0.0
51805.0,STARLINK-3605,PAYLOAD,2023-04-13 06:06:18,15.08835825,0.0001692,53.2178,54.0954,105.8399,254.278,0.0002831,4.22e-05,0.0,0 STARLINK-3605,1 51805U 22017AP  23103.25438014  .00004220  00000-0  28310-3 0  9992,2 51805  53.2178  54.0954 0001692 105.8399 254.2780 15.08835825 64000,6917.893,95.438,540.929,538.588,0.0
51805.0,STARLINK-3605,PAYLOAD,2023-04-14 02:46:19,15.08846566,0.0001515,53.2173,50.2304,103.7441,256.372,0.00038231,5.803e-05,0.0,0 STARLINK-3605,1 51805U 22017AP  23104.11549926  .00005803  00000-0  38231-3 0  9994,2 51805  53.2173  50.2304 0001515 103.7441 256.3720 15.08846566 64136,6917.86,95.437,540.773,538.677,0.0
51805.0,STARLINK-3605,PAYLOAD,2023-04-14 05:57:05,15.08851082,0.0001555,53.2173,49.6351,103.1614,256.9551,0.00046351,7.099e-05,0.0,0 STARLINK-3605,1 51805U 22017AP  23104.24797783  .00007099  00000-0  46351-3 0  9995,2 51805  53.2173  49.6351 0001555 103.1614 256.9551 15.08851082 64159,6917.847,95.437,540.787,538.636,0.0
51805.0,STARLINK-3605,PAYLOAD,2023-04-15 05:47:52,15.08847121,0.0001355,53.2182,45.1744,100.6859,259.4286,0.00040726,6.201e-05,0.0,0 STARLINK-3605,1 51805U 22017AP  23105.24158176  .00006201  00000-0  40726-3 0  9997,2 51805  53.2182  45.1744 0001355 100.6859 259.4286 15.08847121 64306,6917.859,95.437,540.661,538.786,0.0
51805.0,STARLINK-3605,PAYLOAD,2023-04-16 02:27:53,15.08841158,0.0001369,53.2187,41.3075,103.951,256.1634,0.00011085,1.477e-05,0.0,0 STARLINK-3605,1 51805U 22017AP  23106.10270488  .00001477  00000-0  11085-3 0  9990,2 51805  53.2187  41.3075 0001369 103.9510 256.1634 15.08841158 64430,6917.877,95.437,540.689,538.795,0.0
51805.0,STARLINK-3605,PAYLOAD,2023-04-16 04:03:16,15.08840561,0.0001366,53.2187,41.01,103.9542,256.1603,0.00010452,1.376e-05,0.0,0 STARLINK-3605,1 51805U 22017AP  23106.16894503  .00001376  00000-0  10452-3 0  9991,2 51805  53.2187  41.0100 0001366 103.9542 256.1603 15.08840561 64442,6917.879,95.438,540.689,538.799,0.0
51805.0,STARLINK-3605,PAYLOAD,2023-04-17 03:54:03,15.08858146,0.0001053,53.2183,36.5506,96.587,263.5243,0.00035172,5.317e-05,0.0,0 STARLINK-3605,1 51805U 22017AP  23107.16253731  .00005317  00000-0  35172-3 0  9999,2 51805  53.2183  36.5506 0001053  96.5870 263.5243 15.08858146 64597,6917.825,95.436,540.418,538.961,0.0
51805.0,STARLINK-3605,PAYLOAD,2023-04-17 18:12:32,15.0884005,0.0001117,53.2194,33.8782,108.9937,251.1176,0.00013592,1.876e-05,0.0,0 STARLINK-3605,1 51805U 22017AP  23107.75870460  .00001876  00000-0  13592-3 0  9996,2 51805  53.2194  33.8782 0001117 108.9937 251.1176 15.08840050 64681,6917.88,95.438,540.518,538.973,0.0
51805.0,STARLINK-3605,PAYLOAD,2023-04-18 03:44:50,15.08842641,0.000125,53.2197,32.0919,97.374,262.7394,8.5716e-05,1.077e-05,0.0,0 STARLINK-3605,1 51805U 22017AP  23108.15614390  .00001077  00000-0  85716-4 0  9990,2 51805  53.2197  32.0919 0001250  97.3740 262.7394 15.08842641 64743,6917.872,95.437,540.602,538.873,0.0
51805.0,STARLINK-3605,PAYLOAD,2023-04-19 03:35:37,15.08849412,0.0001027,53.2194,27.6329,86.3338,273.7772,5.6517e-05,6.12e-06,0.0,0 STARLINK-3605,1 51805U 22017AP  23109.14974244  .00000612  00000-0  56517-4 0  9998,2 51805  53.2194  27.6329 0001027  86.3338 273.7772 15.08849412 64899,6917.852,95.437,540.427,539.006,0.0
51805.0,STARLINK-3605,PAYLOAD,2023-04-20 03:26:25,15.08836197,0.0001186,53.2197,23.1712,86.5834,273.5294,-2.7538e-06,-3.32e-06,0.0,0 STARLINK-3605,1 51805U 22017AP  23110.14335383 -.00000332  00000-0 -27538-5 0  9998,2 51805  53.2197  23.1712 0001186  86.5834 273.5294 15.08836197 65049,6917.892,95.438,540.577,538.937,0.0
51805.0,STARLINK-3605,PAYLOAD,2023-04-21 11:14:08,15.08845385,0.0001069,53.2196,17.2248,88.2726,271.8388,0.00012979,1.779e-05,0.0,0 STARLINK-3605,1 51805U 22017AP  23111.46815234  .00001779  00000-0  12979-3 0  9997,2 51805  53.2196  17.2248 0001069  88.2726 271.8388 15.08845385 65241,6917.864,95.437,540.468,538.989,0.0
51805.0,STARLINK-3605,PAYLOAD,2023-04-21 17:35:41,15.08842957,0.0001134,53.2183,16.0352,87.8961,272.2161,0.00019363,2.795e-05,0.0,0 STARLINK-3605,1 51805U 22017AP  23111.73311612  .00002795  00000-0  19363-3 0  9991,2 51805  53.2183  16.0352 0001134  87.8961 272.2161 15.08842957 65289,6917.871,95.437,540.521,538.952,0.0
51805.0,STARLINK-3605,PAYLOAD,2023-04-21 23:57:13,15.08850506,9.86e-05,53.2164,14.8481,88.9177,271.1928,0.00024992,3.693e-05,0.0,0 STARLINK-3605,1 51805U 22017AP  23111.99807162  .00003693  00000-0  24992-3 0  9991,2 51805  53.2164  14.8481 0000986  88.9177 271.1928 15.08850506 65325,6917.848,95.437,540.395,539.031,0.0
51805.0,STARLINK-3605,PAYLOAD,2023-04-22 17:26:27,15.08848638,0.0001068,53.2181,11.5769,80.6778,279.4335,8.1307e-05,1.007e-05,0.0,0 STARLINK-3605,1 51805U 22017AP  23112.72670948  .00001007  00000-0  81307-4 0  9994,2 51805  53.2181  11.5769 0001068  80.6778 279.4335 15.08848638 65433,6917.854,95.437,540.458,538.98,0.0
51805.0,STARLINK-3605,PAYLOAD,2023-04-22 23:47:59,15.08852417,0.0001108,53.2177,10.3877,81.3572,278.7545,0.00012796,1.75e-05,0.0,0 STARLINK-3605,1 51805U 22017AP  23112.99166606  .00001750  00000-0  12796-3 0  9994,2 51805  53.2177  10.3877 0001108  81.3572 278.7545 15.08852417 65479,6917.842,95.437,540.474,538.941,0.0
51805.0,STARLINK-3605,PAYLOAD,2023-04-23 17:17:14,15.08843634,0.0001191,53.2173,7.117,80.7607,279.352,-9.4606e-06,-4.38e-06,0.0,0 STARLINK-3605,1 51805U 22017AP  23113.72030773 -.00000438  00000-0 -94606-5 0  9997,2 51805  53.2173   7.1170 0001191  80.7607 279.3520 15.08843634 65582,6917.869,95.437,540.558,538.91,0.0
51805.0,STARLINK-3605,PAYLOAD,2023-04-24 02:49:32,15.08861981,0.0001074,53.2186,5.3311,82.5195,277.5919,0.00010749,1.424e-05,0.0,0 STARLINK-3605,1 51805U 22017AP  23114.11773575  .00001424  00000-0  10749-3 0  9993,2 51805  53.2186   5.3311 0001074  82.5195 277.5919 15.08861981 65649,6917.813,95.436,540.421,538.935,0.0
51805.0,STARLINK-3605,PAYLOAD,2023-04-24 23:29:31,15.08893808,0.0001332,53.2187,1.4675,104.7623,255.3517,0.00080985,0.00012643,0.0,0 STARLINK-3605,1 51805U 22017AP  23114.97883264  .00012643  00000-0  80985-3 0  9998,2 51805  53.2187   1.4675 0001332 104.7623 255.3517 15.08893808 65775,6917.716,95.434,540.502,538.659,0.0
